NORAD_CAT_ID,OBJECT_NAME,OBJECT_TYPE,EPOCH,MEAN_MOTION,ECCENTRICITY,INCLINATION,RA_OF_ASC_NODE,ARG_OF_PERICENTER,MEAN_ANOMALY,BSTAR,MEAN_MOTION_DOT,MEAN_MOTION_DDOT,TLE_LINE0,TLE_LINE1,TLE_LINE2,SEMIMAJOR_AXIS,PERIOD,APOGEE,PERIGEE,DECAYED
55435.0,STARLINK-5626,PAYLOAD,2023-09-25 06:21:47,14.98334948,0.0002821,70.0017,204.6366,264.1943,95.8894,5.4365e-05,5.56e-06,0.0,0 STARLINK-5626,1 55435U 23014AW  23268.26513048  .00000556  00000-0  54365-4 0  9995,2 55435  70.0017 204.6366 0002821 264.1943  95.8894 14.98334948 36799,6950.178,96.107,574.003,570.082,0.0
55435.0,STARLINK-5626,PAYLOAD,2023-09-25 20:46:59,14.98337692,0.0002645,70.0014,203.1213,250.1621,109.9253,0.00019001,2.175e-05,0.0,0 STARLINK-5626,1 55435U 23014AW  23268.86596105  .00002175  00000-0  19001-3 0  9992,2 55435  70.0014 203.1213 0002645 250.1621 109.9253 14.98337692 36888,6950.169,96.107,573.872,570.196,0.0
55435.0,STARLINK-5626,PAYLOAD,2023-09-26 01:35:23,14.98338079,0.0002684,70.0014,202.6163,248.0238,112.0636,0.00019544,2.24e-05,0.0,0 STARLINK-5626,1 55435U 23014AW  23269.06623951  .00002240  00000-0  19544-3 0  9990,2 55435  70.0014 202.6163 0002684 248.0238 112.0636 14.98338079 35978,6950.168,96.106,573.898,570.167,0.0
55435.0,STARLINK-5626,PAYLOAD,2023-09-26 04:47:38,14.98341139,0.0002678,70.0015,202.28,245.7819,114.306,0.0002542,2.942e-05,0.0,0 STARLINK-5626,1 55435U 23014AW  23269.19975498  .00002942  00000-0  25420-3 0  9999,2 55435  70.0015 202.2800 0002678 245.7819 114.3060 14.98341139 36939,6950.158,96.106,573.885,570.162,0.0
55435.0,STARLINK-5626,PAYLOAD,2023-09-26 20:49:01,14.98325831,0.0002618,70.0025,200.5997,235.6646,124.4265,-6.7616e-05,-8.99e-06,0.0,0 STARLINK-5626,1 55435U 23014AW  23269.86737331 -.00000899  00000-0 -67616-4 0  9990,2 55435  70.0025 200.5997 0002618 235.6646 124.4265 14.98325831 37030,6950.206,96.107,573.89,570.251,0.0
55435.0,STARLINK-5626,PAYLOAD,2023-09-27 01:37:25,14.98324936,0.0002807,70.0012,200.0926,250.3206,109.765,-0.00011187,-1.427e-05,0.0,0 STARLINK-5626,1 55435U 23014AW  23270.06765491 -.00001427  00000-0 -11187-3 0  9991,2 55435  70.0012 200.0926 0002807 250.3206 109.7650 14.98324936 36127,6950.209,96.107,574.024,570.123,0.0
55435.0,STARLINK-5626,PAYLOAD,2023-09-27 04:49:41,14.983224,0.0002747,70.0016,199.7563,247.3932,112.6936,-0.00011937,-1.517e-05,0.0,0 STARLINK-5626,1 55435U 23014AW  23270.20117765 -.00001517  00000-0 -11937-3 0  9995,2 55435  70.0016 199.7563 0002747 247.3932 112.6936 14.98322400 37087,6950.216,96.107,573.991,570.172,0.0
55435.0,STARLINK-5626,PAYLOAD,2023-09-28 01:39:27,14.98321525,0.0002789,70.0006,197.5641,265.9041,94.1799,-0.00020542,-2.543e-05,0.0,0 STARLINK-5626,1 55435U 23014AW  23271.06906435 -.00002543  00000-0 -20542-3 0  9992,2 55435  70.0006 197.5641 0002789 265.9041  94.1799 14.98321525 36270,6950.219,96.108,574.023,570.146,0.0
55435.0,STARLINK-5626,PAYLOAD,2023-09-28 04:51:43,14.98325298,0.000273,70.0008,197.2278,265.9571,94.1276,-0.00015058,-1.889e-05,0.0,0 STARLINK-5626,1 55435U 23014AW  23271.20258111 -.00001889  00000-0 -15058-3 0  9997,2 55435  70.0008 197.2278 0002730 265.9571  94.1276 14.98325298 37237,6950.207,96.107,573.97,570.175,0.0
55435.0,STARLINK-5626,PAYLOAD,2023-09-28 20:53:03,14.98325604,0.0002964,70.0007,195.5442,271.5703,88.5117,0.00015956,1.811e-05,0.0,0 STARLINK-5626,1 55435U 23014AW  23271.87017454  .00001811  00000-0  15956-3 0  9993,2 55435  70.0007 195.5442 0002964 271.5703  88.5117 14.98325604 37332,6950.206,96.107,574.132,570.011,0.0
55435.0,STARLINK-5626,PAYLOAD,2023-09-28 22:29:11,14.98325993,0.0002964,70.0007,195.3758,271.4674,88.6146,0.00016157,1.835e-05,0.0,0 STARLINK-5626,1 55435U 23014AW  23271.93693449  .00001835  00000-0  16157-3 0  9994,2 55435  70.0007 195.3758 0002964 271.4674  88.6146 14.98325993 36407,6950.205,96.107,574.13,570.01,0.0
55435.0,STARLINK-5626,PAYLOAD,2023-09-29 04:53:42,14.98331841,0.0002917,70.0008,194.7028,272.0166,88.0659,0.00021926,2.524e-05,0.0,0 STARLINK-5626,1 55435U 23014AW  23272.20396982  .00002524  00000-0  21926-3 0  9993,2 55435  70.0008 194.7028 0002917 272.0166  88.0659 14.98331841 36448,6950.187,96.107,574.08,570.025,0.0
55435.0,STARLINK-5626,PAYLOAD,2023-09-30 04:55:43,14.98342492,0.0002803,70.0011,192.1787,269.352,90.7317,0.00024385,2.819e-05,0.0,0 STARLINK-5626,1 55435U 23014AW  23273.20536071  .00002819  00000-0  24385-3 0  9998,2 55435  70.0011 192.1787 0002803 269.3520  90.7317 14.98342492 36594,6950.154,96.106,573.967,570.071,0.0
55435.0,STARLINK-5626,PAYLOAD,2023-09-30 17:44:49,14.98329452,0.0002858,70.0012,190.8324,272.524,87.5592,-0.00015234,-1.91e-05,0.0,0 STARLINK-5626,1 55435U 23014AW  23273.73945954 -.00001910  00000-0 -15234-3 0  9996,2 55435  70.0012 190.8324 0002858 272.5240  87.5592 14.98329452 36671,6950.195,96.107,574.046,570.073,0.0
55435.0,STARLINK-5626,PAYLOAD,2023-10-01 11:22:17,14.98334737,0.0002883,70.0003,188.981,271.4078,88.6751,-8.9039e-05,-1.155e-05,0.0,0 STARLINK-5626,1 55435U 23014AW  23274.47381306 -.00001155  00000-0 -89039-4 0  9999,2 55435  70.0003 188.9810 0002883 271.4078  88.6751 14.98334737 37722,6950.178,96.107,574.047,570.04,0.0
55435.0,STARLINK-5626,PAYLOAD,2023-10-01 20:59:05,14.98335361,0.0002834,70.0003,187.9714,269.0667,91.0167,-9.3159e-05,-1.204e-05,0.0,0 STARLINK-5626,1 55435U 23014AW  23274.87437262 -.00001204  00000-0 -93159-4 0  9999,2 55435  70.0003 187.9714 0002834 269.0667  91.0167 14.98335361 37786,6950.176,96.107,574.011,570.072,0.0
55435.0,STARLINK-5626,PAYLOAD,2023-10-02 04:59:45,14.98339846,0.000259,70.0007,187.13,264.2253,95.861,4.1962e-06,-4.3e-07,0.0,0 STARLINK-5626,1 55435U 23014AW  23275.20816580 -.00000043  00000-0  41962-5 0  9996,2 55435  70.0007 187.1300 0002590 264.2253  95.8610 14.98339846 36898,6950.162,96.106,573.828,570.227,0.0
55435.0,STARLINK-5626,PAYLOAD,2023-10-02 19:24:58,14.98328204,0.0003062,70.0015,185.6123,271.1133,88.9675,-4.7991e-05,-6.66e-06,0.0,0 STARLINK-5626,1 55435U 23014AW  23275.80901507 -.00000666  00000-0 -47991-4 0  9995,2 55435  70.0015 185.6123 0003062 271.1133  88.9675 14.98328204 36982,6950.198,96.107,574.192,569.935,0.0
55435.0,STARLINK-5626,PAYLOAD,2023-10-02 21:01:07,14.98324613,0.0003043,70.0002,185.4442,271.8611,88.22,-4.8767e-06,-1.51e-06,0.0,0 STARLINK-5626,1 55435U 23014AW  23275.87577615 -.00000151  00000-0 -48767-5 0  9993,2 55435  70.0002 185.4442 0003043 271.8611  88.2200 14.98324613 37930,6950.21,96.107,574.189,569.96,0.0
55435.0,STARLINK-5626,PAYLOAD,2023-10-03 03:25:38,14.98329366,0.0003002,70.0004,184.7722,272.43,87.6515,8.5696e-05,9.3e-06,0.0,0 STARLINK-5626,1 55435U 23014AW  23276.14281138  .00000930  00000-0  85696-4 0  9990,2 55435  70.0004 184.7722 0003002 272.4300  87.6515 14.98329366 37978,6950.195,96.107,574.146,569.973,0.0
55435.0,STARLINK-5626,PAYLOAD,2023-10-03 21:03:08,14.98325216,0.0002779,70.0006,182.9212,271.2034,88.8806,1.1154e-05,4e-07,0.0,0 STARLINK-5626,1 55435U 23014AW  23276.87717705  .00000040  00000-0  11154-4 0  9994,2 55435  70.0006 182.9212 0002779 271.2034  88.8806 14.98325216 38084,6950.208,96.107,574.004,570.141,0.0
55435.0,STARLINK-5626,PAYLOAD,2023-10-04 11:28:20,14.98337004,0.0002879,69.9998,181.4059,270.7282,89.3547,-2.2118e-05,-3.57e-06,0.0,0 STARLINK-5626,1 55435U 23014AW  23277.47800984 -.00000357  00000-0 -22118-4 0  9998,2 55435  69.9998 181.4059 0002879 270.7282  89.3547 14.98337004 38170,6950.171,96.107,574.037,570.035,0.0
55435.0,STARLINK-5626,PAYLOAD,2023-10-04 17:52:52,14.98329858,0.0002914,69.9996,180.732,269.1158,90.9667,0.00010225,1.127e-05,0.0,0 STARLINK-5626,1 55435U 23014AW  23277.74505091  .00001127  00000-0  10225-3 0  9998,2 55435  69.9996 180.7320 0002914 269.1158  90.9667 14.98329858 37274,6950.193,96.107,574.084,570.033,0.0
55435.0,STARLINK-5626,PAYLOAD,2023-10-04 21:05:08,14.98330744,0.0002905,69.9996,180.3952,268.7753,91.3074,0.00010385,1.146e-05,0.0,0 STARLINK-5626,1 55435U 23014AW  23277.87857028  .00001146  00000-0  10385-3 0  9990,2 55435  69.9996 180.3952 0002905 268.7753  91.3074 14.98330744 38237,6950.191,96.107,574.075,570.037,0.0
55435.0,STARLINK-5626,PAYLOAD,2023-10-05 03:29:40,14.98336666,0.0002825,70.0009,179.7256,270.0349,90.0487,0.00014085,1.588e-05,0.0,0 STARLINK-5626,1 55435U 23014AW  23278.14560440  .00001588  00000-0  14085-3 0  9991,2 55435  70.0009 179.7256 0002825 270.0349  90.0487 14.98336666 37335,6950.172,96.107,574.001,570.074,0.0
55435.0,STARLINK-5626,PAYLOAD,2023-10-05 11:30:21,14.98333045,0.0002938,70.0001,178.8817,268.2011,91.8811,-6.5194e-05,-8.71e-06,0.0,0 STARLINK-5626,1 55435U 23014AW  23278.47941079 -.00000871  00000-0 -65194-4 0  9992,2 55435  70.0001 178.8817 0002938 268.2011  91.8811 14.98333045 38328,6950.183,96.107,574.09,570.007,0.0
55435.0,STARLINK-5626,PAYLOAD,2023-10-05 19:31:01,14.98329451,0.0002906,69.9999,178.0394,264.2832,95.7996,-1.0258e-05,-2.15e-06,0.0,0 STARLINK-5626,1 55435U 23014AW  23278.81321276 -.00000215  00000-0 -10258-4 0  9994,2 55435  69.9999 178.0394 0002906 264.2832  95.7996 14.98329451 37439,6950.195,96.107,574.079,570.04,0.0
55435.0,STARLINK-5626,PAYLOAD,2023-10-05 21:07:09,14.98330199,0.0002859,70.0,177.8713,265.1096,94.9736,2.8239e-06,-5.9e-07,0.0,0 STARLINK-5626,1 55435U 23014AW  23278.87997204 -.00000059  00000-0  28239-5 0  9994,2 55435  70.0000 177.8713 0002859 265.1096  94.9736 14.98330199 38385,6950.192,96.107,574.044,570.07,0.0
55435.0,STARLINK-5626,PAYLOAD,2023-10-06 03:31:41,14.98335117,0.0002801,70.0002,177.1984,266.482,93.6019,5.26e-05,5.35e-06,0.0,0 STARLINK-5626,1 55435U 23014AW  23279.14700765  .00000535  00000-0  52600-4 0  9995,2 55435  70.0002 177.1984 0002801 266.4820  93.6019 14.98335117 37481,6950.177,96.107,573.989,570.095,0.0
55435.0,STARLINK-5626,PAYLOAD,2023-10-06 17:56:54,14.9832796,0.00025,70.0015,175.6857,259.1988,100.889,-2.0988e-05,-3.43e-06,0.0,0 STARLINK-5626,1 55435U 23014AW  23279.74785392 -.00000343  00000-0 -20988-4 0  9993,2 55435  70.0015 175.6857 0002500 259.1988 100.8890 14.98327960 37572,6950.199,96.107,573.802,570.327,0.0
